     2              NAVIGATION DATA                         RINEX VERSION / TYPE
CCRINEXN V1.6.0 UX  CDDIS               21-AUG-20 22:09     PGM / RUN BY / DATE 
IGS BROADCAST EPHEMERIS FILE                                COMMENT             
    0.5588D-08  0.1490D-07 -0.5960D-07 -0.1192D-06          ION ALPHA           
    0.7782D+05  0.3277D+05 -0.6554D+05 -0.2621D+06          ION BETA            
    0.000000000000D+00-0.444089209850D-14   147456     2120 DELTA-UTC: A0,A1,T,W
    18                                                      LEAP SECONDS        
                                                            END OF HEADER       
30 20  8 22  0  0  0.0-0.286837108433D-03-0.738964445190D-11 0.000000000000D+00
    0.240000000000D+02 0.702812500000D+02 0.536236622122D-08-0.187652371446D+00
    0.353716313839D-05 0.477217603475D-02 0.678934156895D-05 0.515360162544D+04
    0.518400000000D+06 0.186264514923D-08-0.154808311482D+01 0.186264514923D-07
    0.937678152916D+00 0.234156250000D+03-0.280925070598D+01-0.861821612615D-08
    0.311798701953D-09 0.100000000000D+01 0.211900000000D+04 0.000000000000D+00
    0.200000000000D+01 0.000000000000D+00 0.372529029846D-08 0.240000000000D+02
    0.511218000000D+06 0.400000000000D+01 0.000000000000D+00 0.000000000000D+00
31 20  8 22  0  0  0.0-0.636996701360D-04-0.238742359215D-11 0.000000000000D+00
    0.200000000000D+02 0.747187500000D+02 0.500842290663D-08-0.462795494890D+00
    0.386312603950D-05 0.961139216088D-02 0.702217221260D-05 0.515363311958D+04
    0.518400000000D+06 0.221654772759D-06-0.155353415386D+01 0.279396772385D-07
    0.956790924537D+00 0.242093750000D+03 0.148027137444D+00-0.849249660371D-08
    0.381801617856D-09 0.100000000000D+01 0.211900000000D+04 0.000000000000D+00
    0.200000000000D+01 0.000000000000D+00-0.130385160446D-07 0.200000000000D+02
    0.514728000000D+06 0.400000000000D+01 0.000000000000D+00 0.000000000000D+00
32 20  8 22  0  0  0.0 0.335933640599D-03 0.534328137292D-11 0.000000000000D+00
    0.790000000000D+02-0.303750000000D+02 0.437875382124D-08-0.287066152731D+01
   -0.159442424774D-05 0.410182680935D-02 0.137612223625D-04 0.515375844192D+04
    0.518400000000D+06 0.167638063431D-07-0.263442441467D+01-0.124797224999D-06
    0.957304449744D+00 0.109812500000D+03-0.243936441270D+01-0.789711466081D-08
   -0.928610108910D-10 0.100000000000D+01 0.211900000000D+04 0.000000000000D+00
    0.200000000000D+01 0.000000000000D+00 0.465661287308D-09 0.790000000000D+02
    0.511218000000D+06 0.400000000000D+01 0.000000000000D+00 0.000000000000D+00
18 20  8 22  0 44 32.0 0.274830963463D-03 0.795807864051D-11 0.000000000000D+00
    0.164000000000D+03 0.826875000000D+02 0.456661878943D-08 0.144781091047D+01
    0.430643558502D-05 0.927958870307D-03 0.568293035030D-05 0.515371278572D+04
    0.521072000000D+06 0.223517417908D-07 0.158524471578D+01 0.124797224999D-06
    0.964501594151D+00 0.272468750000D+03 0.267990583848D+01-0.828534511788D-08
    0.522164607395D-09 0.100000000000D+01 0.211900000000D+04 0.000000000000D+00
    0.200000000000D+01 0.000000000000D+00-0.838190317154D-08 0.164000000000D+03
    0.513918000000D+06 0.400000000000D+01 0.000000000000D+00 0.000000000000D+00
 6 20  8 22  1 59 44.0-0.318103469908D-03-0.397903932026D-11 0.000000000000D+00
    0.230000000000D+02 0.706250000000D+02 0.409874215763D-08 0.192681391823D+01
    0.377558171749D-05 0.176816852763D-02 0.700727105141D-05 0.515359613419D+04
    0.525584000000D+06 0.353902578354D-07 0.156101129347D+01-0.204890966415D-07
    0.980424452420D+00 0.253000000000D+03-0.110170411650D+01-0.800069040373D-08
    0.517878714584D-09 0.100000000000D+01 0.211900000000D+04 0.000000000000D+00
    0.200000000000D+01 0.000000000000D+00 0.419095158577D-08 0.230000000000D+02
    0.518418000000D+06 0.400000000000D+01 0.000000000000D+00 0.000000000000D+00
 8 20  8 22  1 59 44.0-0.452762469649D-04-0.125055521494D-11 0.000000000000D+00
    0.700000000000D+01-0.209375000000D+01 0.392587781428D-08-0.236632493310D+01
   -0.139698386192D-06 0.540736480616D-02 0.134166330099D-04 0.515371738052D+04
    0.525584000000D+06-0.223517417908D-07 0.498384802699D+00-0.335276126862D-07
    0.969518529801D+00 0.125218750000D+03-0.601259184287D-01-0.777746681985D-08
   -0.216794744657D-09 0.100000000000D+01 0.211900000000D+04 0.000000000000D+00
    0.200000000000D+01 0.000000000000D+00 0.512227416039D-08 0.700000000000D+01
    0.520633000000D+06 0.400000000000D+01 0.000000000000D+00 0.000000000000D+00
13 20  8 22  1 59 44.0 0.380100682378D-04 0.352429196937D-11 0.000000000000D+00
    0.700000000000D+02-0.264062500000D+02 0.419731769227D-08 0.312267812492D+01
   -0.146962702274D-05 0.438233825844D-02 0.132005661726D-04 0.515369704246D+04
    0.525584000000D+06 0.558793544769D-08-0.249908029275D+01-0.670552253723D-07
    0.968200613236D+00 0.130187500000D+03 0.104584091021D+01-0.772317884426D-08
    0.116790579082D-09 0.100000000000D+01 0.211900000000D+04 0.000000000000D+00
    0.200000000000D+01 0.000000000000D+00-0.111758708954D-07 0.700000000000D+02
    0.519456000000D+06 0.400000000000D+01 0.000000000000D+00 0.000000000000D+00
17 20  8 22  1 59 44.0 0.314560718834D-03 0.557065504836D-11 0.000000000000D+00
    0.500000000000D+01-0.750000000000D+01 0.353407577987D-08-0.259910936743D+01
   -0.288709998131D-06 0.133213415975D-01 0.133551657200D-04 0.515374938965D+04
    0.525584000000D+06 0.128522515297D-06 0.572274511268D+00-0.838190317154D-07
    0.983902335344D+00 0.133906250000D+03-0.163882313222D+01-0.731816197368D-08
   -0.156077929844D-09 0.100000000000D+01 0.211900000000D+04 0.000000000000D+00
    0.200000000000D+01 0.000000000000D+00-0.111758708954D-07 0.500000000000D+01
    0.519036000000D+06 0.400000000000D+01 0.000000000000D+00 0.000000000000D+00
21 20  8 22  1 59 44.0 0.383909791708D-04 0.432009983342D-11 0.000000000000D+00
    0.300000000000D+01 0.100968750000D+03 0.471305346045D-08-0.128397130363D+01
    0.556558370590D-05 0.238005158026D-01 0.734627246857D-05 0.515506452560D+04
    0.525584000000D+06-0.361353158951D-06 0.149293256176D+01 0.359490513802D-06
    0.953850503085D+00 0.243531250000D+03-0.129903802713D+01-0.862321633443D-08
    0.642526763819D-09 0.100000000000D+01 0.211900000000D+04 0.000000000000D+00
    0.200000000000D+01 0.000000000000D+00-0.102445483208D-07 0.300000000000D+01
    0.519126000000D+06 0.400000000000D+01 0.000000000000D+00 0.000000000000D+00
22 20  8 22  1 59 44.0-0.762002076954D-03 0.341060513165D-11 0.000000000000D+00
    0.300000000000D+01-0.582187500000D+02 0.560166190313D-08 0.281388004442D+01
   -0.322051346302D-05 0.681435433216D-02 0.325776636601D-05 0.515375162315D+04
    0.525584000000D+06 0.819563865662D-07 0.252003780699D+01 0.838190317154D-07
    0.931732728031D+00 0.299125000000D+03-0.110060499543D+01-0.877786563334D-08
   -0.186793494985D-09 0.100000000000D+01 0.211900000000D+04 0.000000000000D+00
    0.200000000000D+01 0.000000000000D+00-0.181607902050D-07 0.300000000000D+01
    0.525156000000D+06 0.400000000000D+01 0.000000000000D+00 0.000000000000D+00
24 20  8 22  1 59 44.0-0.174837186933D-04-0.568434188608D-12 0.000000000000D+00
    0.470000000000D+02 0.742500000000D+02 0.539236747089D-08 0.190927963229D+01
    0.385567545891D-05 0.993967300747D-02 0.774860382080D-05 0.515364403343D+04
    0.525584000000D+06-0.348314642906D-06-0.164316203168D+01 0.931322574616D-08
    0.935733765090D+00 0.217812500000D+03 0.671038176439D+00-0.857321425164D-08
    0.456090426568D-09 0.100000000000D+01 0.211900000000D+04 0.000000000000D+00
    0.200000000000D+01 0.000000000000D+00 0.279396772385D-08 0.470000000000D+02
    0.518418000000D+06 0.400000000000D+01 0.000000000000D+00 0.000000000000D+00
29 20  8 22  1 59 44.0-0.177960377187D-03-0.829913915368D-11 0.000000000000D+00
    0.700000000000D+01 0.106250000000D+02 0.361586490100D-08-0.235199159092D+01
    0.450760126114D-06 0.163109321147D-02 0.125244259834D-04 0.515376894951D+04
    0.525584000000D+06 0.260770320892D-07 0.584176460197D+00 0.558793544769D-07
    0.985603289213D+00 0.152531250000D+03 0.217328449832D+01-0.759674500635D-08
   -0.166435504135D-09 0.100000000000D+01 0.211900000000D+04 0.000000000000D+00
    0.200000000000D+01 0.000000000000D+00-0.102445483208D-07 0.700000000000D+01
    0.525156000000D+06 0.400000000000D+01 0.000000000000D+00 0.000000000000D+00
 1 20  8 22  2  0  0.0 0.348752364516D-04 0.147792889038D-11 0.000000000000D+00
    0.750000000000D+02 0.838750000000D+02 0.420981821297D-08 0.161700853670D+01
    0.425055623054D-05 0.100714293076D-01 0.703707337380D-05 0.515370067787D+04
    0.525600000000D+06-0.137835741043D-06 0.156926327935D+01 0.186264514923D-07
    0.980884101280D+00 0.254250000000D+03 0.821790437682D+00-0.819784147300D-08
    0.492877673191D-09 0.100000000000D+01 0.211900000000D+04 0.000000000000D+00
    0.200000000000D+01 0.000000000000D+00 0.512227416039D-08 0.750000000000D+02
    0.518467000000D+06 0.400000000000D+01 0.000000000000D+00 0.000000000000D+00
 2 20  8 22  2  0  0.0-0.505584757775D-03-0.534328137292D-11 0.000000000000D+00
    0.230000000000D+02 0.745000000000D+02 0.447161483213D-08 0.186091512611D+01
    0.370293855667D-05 0.197838612367D-01 0.729411840439D-05 0.515376019478D+04
    0.525600000000D+06 0.236555933952D-06 0.149116263131D+01-0.452622771263D-06
    0.959836112867D+00 0.232281250000D+03-0.160924215624D+01-0.804462080503D-08
    0.520021660990D-09 0.100000000000D+01 0.211900000000D+04 0.000000000000D+00
    0.200000000000D+01 0.000000000000D+00-0.176951289177D-07 0.230000000000D+02
    0.518418000000D+06 0.400000000000D+01 0.000000000000D+00 0.000000000000D+00
